[{"OBJECT_NAME":"SCS-01 M","OBJECT_ID":"2025-100M","EPOCH":"2026-03-09T23:50:15.541152","MEAN_MOTION":15.31880861,"ECCENTRICITY":0.00078021,"INCLINATION":97.3725,"RA_OF_ASC_NODE":145.6908,"ARG_OF_PERICENTER":292.3826,"MEAN_ANOMALY":67.6588,"EPHEMERIS_TYPE":0,"CLASSIFICATION_TYPE":"U","NORAD_CAT_ID":63993,"ELEMENT_SET_NO":999,"REV_AT_EPOCH":4565,"BSTAR":0.0012010051,"MEAN_MOTION_DOT":0.00037061,"MEAN_MOTION_DDOT":0},{"OBJECT_NAME":"STARLINK-34273","OBJECT_ID":"2025-157B","EPOCH":"2026-03-09T04:19:19.035552","MEAN_MOTION":15.30181902,"ECCENTRICITY":0.00011822,"INCLINATION":53.1608,"RA_OF_ASC_NODE":348.1885,"ARG_OF_PERICENTER":58.1528,"MEAN_ANOMALY":301.9587,"EPHEMERIS_TYPE":0,"CLASSIFICATION_TYPE":"U","NORAD_CAT_ID":64905,"ELEMENT_SET_NO":999,"REV_AT_EPOCH":3605,"BSTAR":0.0013347067,"MEAN_MOTION_DOT":0.00039358,"MEAN_MOTION_DDOT":0}]
